{
  "type": "FeatureCollection",
  "features": [
    {
      "type": "Feature",
      "properties": {
        "norad_id": 31307,
        "name": "GALAXY 17 (G-17)",
        "group": "intelsat",
        "lat": -1.6165640080350085,
        "lon": -58.76598429285323,
        "alt_km": 35769.34466106172,
        "timestamp": "2025-12-26T19:22:38.561781+00:00",
        "meta_object_name": "GALAXY 17 (G-17)",
        "meta_object_id": "2007-016B",
        "meta_epoch": "2025-12-26T13:30:50.905152",
        "meta_mean_motion": 1.00271679,
        "meta_eccentricity": 0.00056354,
        "meta_inclination": 2.5327,
        "meta_ra_of_asc_node": 82.127,
        "meta_arg_of_pericenter": 174.459,
        "meta_mean_anomaly": 316.4453,
        "meta_ephemeris_type": 0,
        "meta_classification_type": "U",
        "meta_norad_cat_id": 31307,
        "meta_element_set_no": 999,
        "meta_rev_at_epoch": 6807,
        "meta_bstar": 0,
        "meta_mean_motion_dot": -1.85e-06,
        "meta_mean_motion_ddot": 0,
        "tle_line1": "1 31307U 07016B   25360.56308918 -.00000185  00000+0  00000+0 0  9997",
        "tle_line2": "2 31307   2.5327  82.1270 0005635 174.4590 316.4453  1.00271679 68074"
      },
      "geometry": {
        "type": "Point",
        "coordinates": [
          -58.76598429285323,
          -1.6165640080350085
        ]
      }
    },
    {
      "type": "Feature",
      "properties": {
        "norad_id": 31862,
        "name": "DIRECTV 10",
        "group": "intelsat",
        "lat": -0.006403033124913641,
        "lon": -76.53279331435287,
        "alt_km": 35781.319314565524,
        "timestamp": "2025-12-26T19:22:38.561794+00:00",
        "meta_object_name": "DIRECTV 10",
        "meta_object_id": "2007-032A",
        "meta_epoch": "2025-12-25T09:09:15.831072",
        "meta_mean_motion": 1.00280696,
        "meta_eccentricity": 7.66e-05,
        "meta_inclination": 0.0126,
        "meta_ra_of_asc_node": 126.575,
        "meta_arg_of_pericenter": 111.4706,
        "meta_mean_anomaly": 250.6263,
        "meta_ephemeris_type": 0,
        "meta_classification_type": "U",
        "meta_norad_cat_id": 31862,
        "meta_element_set_no": 999,
        "meta_rev_at_epoch": 4385,
        "meta_bstar": 0,
        "meta_mean_motion_dot": -8.3e-07,
        "meta_mean_motion_ddot": 0,
        "tle_line1": "1 31862U 07032A   25359.38143323 -.00000083  00000+0  00000+0 0  9993",
        "tle_line2": "2 31862   0.0126 126.5750 0000766 111.4706 250.6263  1.00280696 43852"
      },
      "geometry": {
        "type": "Point",
        "coordinates": [
          -76.53279331435287,
          -0.006403033124913641
        ]
      }
    },
    {
      "type": "Feature",
      "properties": {
        "norad_id": 32253,
        "name": "INTELSAT 11 (IS-11)",
        "group": "intelsat",
        "lat": 2.944005267151424,
        "lon": -169.9806455543561,
        "alt_km": 36114.05837231829,
        "timestamp": "2025-12-26T19:22:38.561806+00:00",
        "meta_object_name": "INTELSAT 11 (IS-11)",
        "meta_object_id": "2007-044B",
        "meta_epoch": "2025-12-26T11:04:38.607744",
        "meta_mean_motion": 0.99053021,
        "meta_eccentricity": 0.00086494,
        "meta_inclination": 3.1139,
        "meta_ra_of_asc_node": 80.8223,
        "meta_arg_of_pericenter": 171.9228,
        "meta_mean_anomaly": 174.017,
        "meta_ephemeris_type": 0,
        "meta_classification_type": "U",
        "meta_norad_cat_id": 32253,
        "meta_element_set_no": 999,
        "meta_rev_at_epoch": 6673,
        "meta_bstar": 0,
        "meta_mean_motion_dot": -2.16e-06,
        "meta_mean_motion_ddot": 0,
        "tle_line1": "1 32253U 07044B   25360.46155796 -.00000216  00000+0  00000+0 0  9997",
        "tle_line2": "2 32253   3.1139  80.8223 0008649 171.9228 174.0170  0.99053021 66735"
      },
      "geometry": {
        "type": "Point",
        "coordinates": [
          -169.9806455543561,
          2.944005267151424
        ]
      }
    },
    {
      "type": "Feature",
      "properties": {
        "norad_id": 32388,
        "name": "HORIZONS-2",
        "group": "intelsat",
        "lat": -1.6585881631243575,
        "lon": -47.6006764205151,
        "alt_km": 35769.699527282755,
        "timestamp": "2025-12-26T19:22:38.561818+00:00",
        "meta_object_name": "HORIZONS-2",
        "meta_object_id": "2007-063B",
        "meta_epoch": "2025-12-26T11:37:39.127296",
        "meta_mean_motion": 1.00268933,
        "meta_eccentricity": 0.00048625,
        "meta_inclination": 2.1553,
        "meta_ra_of_asc_node": 82.8098,
        "meta_arg_of_pericenter": 197.5129,
        "meta_mean_anomaly": 275.5092,
        "meta_ephemeris_type": 0,
        "meta_classification_type": "U",
        "meta_norad_cat_id": 32388,
        "meta_element_set_no": 999,
        "meta_rev_at_epoch": 6608,
        "meta_bstar": 0,
        "meta_mean_motion_dot": -2.32e-06,
        "meta_mean_motion_ddot": 0,
        "tle_line1": "1 32388U 07063B   25360.48448064 -.00000232  00000+0  00000+0 0  9990",
        "tle_line2": "2 32388   2.1553  82.8098 0004862 197.5129 275.5092  1.00268933 66083"
      },
      "geometry": {
        "type": "Point",
        "coordinates": [
          -47.6006764205151,
          -1.6585881631243575
        ]
      }
    },
    {
      "type": "Feature",
      "properties": {
        "norad_id": 32729,
        "name": "DIRECTV 11",
        "group": "intelsat",
        "lat": 0.02433170124299156,
        "lon": -73.06343648195534,
        "alt_km": 35788.19927680151,
        "timestamp": "2025-12-26T19:22:38.561830+00:00",
        "meta_object_name": "DIRECTV 11",
        "meta_object_id": "2008-013A",
        "meta_epoch": "2025-12-24T22:53:59.758368",
        "meta_mean_motion": 1.00260442,
        "meta_eccentricity": 0.0001047,
        "meta_inclination": 0.0475,
        "meta_ra_of_asc_node": 199.7105,
        "meta_arg_of_pericenter": 11.4593,
        "meta_mean_anomaly": 126.8496,
        "meta_ephemeris_type": 0,
        "meta_classification_type": "U",
        "meta_norad_cat_id": 32729,
        "meta_element_set_no": 999,
        "meta_rev_at_epoch": 4384,
        "meta_bstar": 0,
        "meta_mean_motion_dot": -1.03e-06,
        "meta_mean_motion_ddot": 0,
        "tle_line1": "1 32729U 08013A   25358.95416387 -.00000103  00000+0  00000+0 0  9994",
        "tle_line2": "2 32729   0.0475 199.7105 0001047  11.4593 126.8496  1.00260442 43842"
      },
      "geometry": {
        "type": "Point",
        "coordinates": [
          -73.06343648195534,
          0.02433170124299156
        ]
      }
    },
    {
      "type": "Feature",
      "properties": {
        "norad_id": 32951,
        "name": "GALAXY 18 (G-18)",
        "group": "intelsat",
        "lat": -0.03413664046678081,
        "lon": -96.81321437891917,
        "alt_km": 35773.1025338689,
        "timestamp": "2025-12-26T19:22:38.561843+00:00",
        "meta_object_name": "GALAXY 18 (G-18)",
        "meta_object_id": "2008-024A",
        "meta_epoch": "2025-12-26T12:08:40.986816",
        "meta_mean_motion": 1.00271965,
        "meta_eccentricity": 0.00032454,
        "meta_inclination": 0.016,
        "meta_ra_of_asc_node": 354.7161,
        "meta_arg_of_pericenter": 288.4003,
        "meta_mean_anomaly": 231.3032,
        "meta_ephemeris_type": 0,
        "meta_classification_type": "U",
        "meta_norad_cat_id": 32951,
        "meta_element_set_no": 999,
        "meta_rev_at_epoch": 4412,
        "meta_bstar": 0,
        "meta_mean_motion_dot": 4.7e-07,
        "meta_mean_motion_ddot": 0,
        "tle_line1": "1 32951U 08024A   25360.50602994  .00000047  00000+0  00000+0 0  9994",
        "tle_line2": "2 32951   0.0160 354.7161 0003245 288.4003 231.3032  1.00271965 44121"
      },
      "geometry": {
        "type": "Point",
        "coordinates": [
          -96.81321437891917,
          -0.03413664046678081
        ]
      }
    },
    {
      "type": "Feature",
      "properties": {
        "norad_id": 33153,
        "name": "INTELSAT 25 (IS-25)",
        "group": "intelsat",
        "lat": -2.2664788384890433,
        "lon": -5.233219967641829,
        "alt_km": 35783.42165367486,
        "timestamp": "2025-12-26T19:22:38.561855+00:00",
        "meta_object_name": "INTELSAT 25 (IS-25)",
        "meta_object_id": "2008-034A",
        "meta_epoch": "2025-12-26T11:10:18.842304",
        "meta_mean_motion": 1.00271391,
        "meta_eccentricity": 0.00049958,
        "meta_inclination": 2.2611,
        "meta_ra_of_asc_node": 82.4991,
        "meta_arg_of_pericenter": 190.6323,
        "meta_mean_anomaly": 318.163,
        "meta_ephemeris_type": 0,
        "meta_classification_type": "U",
        "meta_norad_cat_id": 33153,
        "meta_element_set_no": 999,
        "meta_rev_at_epoch": 6396,
        "meta_bstar": 0,
        "meta_mean_motion_dot": -2.03e-06,
        "meta_mean_motion_ddot": 0,
        "tle_line1": "1 33153U 08034A   25360.46549586 -.00000203  00000+0  00000+0 0  9997",
        "tle_line2": "2 33153   2.2611  82.4991 0004995 190.6323 318.1630  1.00271391 63963"
      },
      "geometry": {
        "type": "Point",
        "coordinates": [
          -5.233219967641829,
          -2.2664788384890433
        ]
      }
    }
  ]
}